OBJECT_NAME,OBJECT_ID,EPOCH,MEAN_MOTION,ECCENTRICITY,INCLINATION,RA_OF_ASC_NODE,ARG_OF_PERICENTER,MEAN_ANOMALY,EPHEMERIS_TYPE,CLASSIFICATION_TYPE,NORAD_CAT_ID,ELEMENT_SET_NO,REV_AT_EPOCH,BSTAR,MEAN_MOTION_DOT,MEAN_MOTION_DDOT
ELEKTRO-L 3,2019-095A,2026-06-29T00:47:46.762368,1.00272473,.0001546,0.2867,82.0022,4.7933,278.2461,0,U,44903,999,2382,0,-.85E-6,0
GONETS-M 14,2019-096A,2026-06-29T12:36:36.293184,12.42870302,.0014031,82.5240,76.9921,122.1427,238.1016,0,U,44905,999,29521,.34216E-3,.57E-6,0
GONETS-M 15,2019-096B,2026-06-29T11:23:00.557664,12.42871493,.0015457,82.5259,77.4872,144.7998,215.4106,0,U,44906,999,29517,-.24934E-3,-.25E-6,0
GONETS-M 16,2019-096C,2026-06-29T12:00:27.744768,12.42891857,.0010278,82.5205,76.4176,185.7807,174.3155,0,U,44907,999,29516,-.26039E-4,.6E-7,0
RS-44 & BREEZE-KM R/B,2019-096E,2026-06-29T12:20:24.320832,12.79749009,.021852,82.5229,331.5128,115.4686,246.9198,0,U,44909,999,30392,-.41581E-4,.3E-7,0
JILIN-1 KUANFU 01,2020-003A,2026-06-29T11:20:31.795008,15.10789955,.000816,97.5032,254.1882,257.3448,102.6869,0,U,45016,999,35718,.18808E-3,.3061E-4,0
XINGYUN-2 01,2020-028A,2026-06-29T12:27:20.835360,15.11857882,.0009725,97.4863,172.6749,151.9872,208.1884,0,U,45602,999,33670,.16849E-3,.282E-4,0
XINGYUN-2 02,2020-028B,2026-06-29T11:59:42.896256,15.11582673,.0009553,97.5062,186.2748,223.6702,136.3774,0,U,45603,999,33669,.13517E-3,.2232E-4,0
HAIYANG-1D,2020-036A,2026-06-29T12:44:46.799808,14.34176328,.000391,98.4557,121.9428,102.0868,258.0756,0,U,45721,999,31674,-.21311E-4,-.103E-5,0
M2 PATHFINDER,2020-037E,2026-06-29T11:34:39.441216,15.04726839,.0012665,97.8138,11.8516,110.3788,249.8799,0,U,45727,999,32734,.2237E-3,.3092E-4,0
GAOFEN DUOMO (GFDM),2020-042A,2026-06-29T12:54:55.805760,14.76898371,.0011958,97.7748,239.9753,39.4403,320.7676,0,U,45856,999,32283,.19167E-3,.13E-4,0
ZIYUAN 3-03 (ZY 3-03),2020-051A,2026-06-29T11:37:13.338624,15.21349820,.0002021,97.2837,247.8116,277.2335,82.8671,0,U,45939,999,32921,.16979E-3,.3736E-4,0
NEMO-HD,2020-061F,2026-06-29T12:03:51.143328,15.44837605,.0001653,97.1917,242.3323,74.7555,285.3877,0,U,46277,999,32388,.2221E-3,.10329E-3,0
NAPA-1,2020-061BA,2026-06-29T12:53:43.314432,15.69667905,.0001741,97.2458,255.1356,180.3395,179.7867,0,U,46320,999,32367,.60563E-3,.72054E-3,0
JILIN-1 GAOFEN 3E,2020-065D,2026-06-29T12:05:15.951840,15.65164643,.0012358,97.2235,233.4090,119.7889,240.4601,0,U,46457,999,32168,.66073E-3,.65742E-3,0
JILIN-1 GAOFEN 3F,2020-065E,2026-06-29T11:41:04.233120,15.62204070,.0013908,97.2189,230.6668,108.1608,252.1166,0,U,46458,999,32162,.64553E-3,.57186E-3,0
JILIN-1 GAOFEN 3G,2020-065F,2026-06-29T11:52:09.883776,15.73571174,.0005451,97.2250,237.6921,10.3027,349.8348,0,U,46459,999,32187,.71933E-3,.101231E-2,0
JILIN-1 GAOFEN 3H,2020-065G,2026-06-29T11:52:47.133408,15.69627472,.0003871,97.2199,233.9423,268.9144,91.1675,0,U,46460,999,32181,.67637E-3,.80453E-3,0
HAIYANG-2C,2020-066A,2026-06-29T12:40:34.054752,13.83376527,.000842,65.9947,184.5574,237.6320,122.3934,0,U,46469,999,29120,-.63637E-4,-.151E-5,0
HJ-2A,2020-067A,2026-06-29T11:58:29.114112,14.76530171,.0002813,97.8833,258.5802,207.4874,152.6187,0,U,46478,999,31007,.79937E-4,.507E-5,0
HJ-2B,2020-067B,2026-06-29T11:13:30.301248,14.76574840,.0001587,97.8898,259.5816,100.1622,259.9767,0,U,46479,999,31007,.16154E-3,.1077E-4,0
GONETS-M 17,2020-068A,2026-06-29T12:36:50.575104,12.42873670,.0022565,82.4989,339.8253,11.1898,348.9678,0,U,46486,999,26069,.20041E-3,.38E-6,0
GONETS-M 18,2020-068B,2026-06-29T11:44:30.151104,12.42874847,.0019781,82.4943,338.9611,7.9979,352.1412,0,U,46487,999,26067,.12201E-2,.179E-5,0
GONETS-M 19,2020-068C,2026-06-29T13:04:46.222752,12.42892502,.00138,82.4968,339.3791,24.1791,335.9934,0,U,46488,999,26078,.22956E-3,.42E-6,0
DEKART,2020-068H,2026-06-29T12:10:53.192640,15.37618611,.0007528,97.8734,190.6616,231.5181,128.5388,0,U,46493,999,31766,.308E-3,.11295E-3,0
NORBI,2020-068J,2026-06-29T13:30:09.497952,15.48969621,.0006496,97.8620,197.6214,194.8132,165.2928,0,U,46494,999,31812,.37163E-3,.20024E-3,0
SALSAT,2020-068K,2026-06-28T23:37:04.859328,15.29961615,.00078707,97.8845,183.7681,257.4321,102.6038,0,U,46495,999,31716,.23731316E-3,.6804E-4,0
