ELEKTRO-L 3             
1 44903U 19095A   26180.03318012 -.00000085  00000+0  00000+0 0  9991
2 44903   0.2867  82.0022 0001546   4.7933 278.2461  1.00272473 23822
GONETS-M 14             
1 44905U 19096A   26180.52542006  .00000057  00000+0  34216-3 0  9998
2 44905  82.5240  76.9921 0014031 122.1427 238.1016 12.42870302295216
GONETS-M 15             
1 44906U 19096B   26180.47431201 -.00000025  00000+0 -24934-3 0  9990
2 44906  82.5259  77.4872 0015457 144.7998 215.4106 12.42871493295179
GONETS-M 16             
1 44907U 19096C   26180.50032112  .00000006  00000+0 -26039-4 0  9990
2 44907  82.5205  76.4176 0010278 185.7807 174.3155 12.42891857295169
RS-44 & BREEZE-KM R/B   
1 44909U 19096E   26180.51417038  .00000003  00000+0 -41581-4 0  9993
2 44909  82.5229 331.5128 0218520 115.4686 246.9198 12.79749009303922
JILIN-1 KUANFU 01       
1 45016U 20003A   26180.47259022  .00003061  00000+0  18808-3 0  9996
2 45016  97.5032 254.1882 0008160 257.3448 102.6869 15.10789955357188
XINGYUN-2 01            
1 45602U 20028A   26180.51899115  .00002820  00000+0  16849-3 0  9997
2 45602  97.4863 172.6749 0009725 151.9872 208.1884 15.11857882336704
XINGYUN-2 02            
1 45603U 20028B   26180.49980204  .00002232  00000+0  13517-3 0  9991
2 45603  97.5062 186.2748 0009553 223.6702 136.3774 15.11582673336696
HAIYANG-1D              
1 45721U 20036A   26180.53109722 -.00000103  00000+0 -21311-4 0  9993
2 45721  98.4557 121.9428 0003910 102.0868 258.0756 14.34176328316747
M2 PATHFINDER           
1 45727U 20037E   26180.48240094  .00003092  00000+0  22370-3 0  9995
2 45727  97.8138  11.8516 0012665 110.3788 249.8799 15.04726839327345
GAOFEN DUOMO (GFDM)     
1 45856U 20042A   26180.53814590  .00001300  00000+0  19167-3 0  9998
2 45856  97.7748 239.9753 0011958  39.4403 320.7676 14.76898371322830
ZIYUAN 3-03 (ZY 3-03)   
1 45939U 20051A   26180.48418216  .00003736  00000+0  16979-3 0  9992
2 45939  97.2837 247.8116 0002021 277.2335  82.8671 15.21349820329215
NEMO-HD                 
1 46277U 20061F   26180.50267527  .00010329  00000+0  22210-3 0  9990
2 46277  97.1917 242.3323 0001653  74.7555 285.3877 15.44837605323886
NAPA-1                  
1 46320U 20061BA  26180.53730688  .00072054  00000+0  60563-3 0  9991
2 46320  97.2458 255.1356 0001741 180.3395 179.7867 15.69667905323671
JILIN-1 GAOFEN 3E       
1 46457U 20065D   26180.50365685  .00065742  00000+0  66073-3 0  9992
2 46457  97.2235 233.4090 0012358 119.7889 240.4601 15.65164643321687
JILIN-1 GAOFEN 3F       
1 46458U 20065E   26180.48685455  .00057186  00000+0  64553-3 0  9994
2 46458  97.2189 230.6668 0013908 108.1608 252.1166 15.62204070321625
JILIN-1 GAOFEN 3G       
1 46459U 20065F   26180.49455884  .00101231  00000+0  71933-3 0  9998
2 46459  97.2250 237.6921 0005451  10.3027 349.8348 15.73571174321874
JILIN-1 GAOFEN 3H       
1 46460U 20065G   26180.49498997  .00080453  00000+0  67637-3 0  9990
2 46460  97.2199 233.9423 0003871 268.9144  91.1675 15.69627472321811
HAIYANG-2C              
1 46469U 20066A   26180.52817193 -.00000151  00000+0 -63637-4 0  9993
2 46469  65.9947 184.5574 0008420 237.6320 122.3934 13.83376527291205
HJ-2A                   
1 46478U 20067A   26180.49894808  .00000507  00000+0  79937-4 0  9991
2 46478  97.8833 258.5802 0002813 207.4874 152.6187 14.76530171310071
HJ-2B                   
1 46479U 20067B   26180.46771182  .00001077  00000+0  16154-3 0  9992
2 46479  97.8898 259.5816 0001587 100.1622 259.9767 14.76574840310072
GONETS-M 17             
1 46486U 20068A   26180.52558536  .00000038  00000+0  20041-3 0  9990
2 46486  82.4989 339.8253 0022565  11.1898 348.9678 12.42873670260699
GONETS-M 18             
1 46487U 20068B   26180.48923786  .00000179  00000+0  12201-2 0  9993
2 46487  82.4943 338.9611 0019781   7.9979 352.1412 12.42874847260675
GONETS-M 19             
1 46488U 20068C   26180.54497943  .00000042  00000+0  22956-3 0  9990
2 46488  82.4968 339.3791 0013800  24.1791 335.9934 12.42892502260784
DEKART                  
1 46493U 20068H   26180.50756010  .00011295  00000+0  30800-3 0  9994
2 46493  97.8734 190.6616 0007528 231.5181 128.5388 15.37618611317665
NORBI                   
1 46494U 20068J   26180.56260993  .00020024  00000+0  37163-3 0  9990
2 46494  97.8620 197.6214 0006496 194.8132 165.2928 15.48969621318123
SALSAT                  
1 46495U 20068K   26179.98408402  .00006804  00000+0  23731-3 0  9990
2 46495  97.8845 183.7681 0007870 257.4321 102.6038 15.29961615317164
